[{"OBJECT_NAME":"OBJECT L","OBJECT_ID":"2023-085L","EPOCH":"2026-03-09T23:02:21.999840","MEAN_MOTION":15.29079976,"ECCENTRICITY":0.0005428,"INCLINATION":97.486,"RA_OF_ASC_NODE":178.8598,"ARG_OF_PERICENTER":50.8528,"MEAN_ANOMALY":309.3193,"EPHEMERIS_TYPE":0,"CLASSIFICATION_TYPE":"U","NORAD_CAT_ID":57014,"ELEMENT_SET_NO":999,"REV_AT_EPOCH":15144,"BSTAR":0.00063462603,"MEAN_MOTION_DOT":0.00017871,"MEAN_MOTION_DDOT":0},{"OBJECT_NAME":"STARLINK-32450","OBJECT_ID":"2024-210L","EPOCH":"2026-03-08T14:04:59.288448","MEAN_MOTION":15.27587636,"ECCENTRICITY":0.00022291,"INCLINATION":42.9994,"RA_OF_ASC_NODE":178.9286,"ARG_OF_PERICENTER":261.1082,"MEAN_ANOMALY":98.9517,"EPHEMERIS_TYPE":0,"CLASSIFICATION_TYPE":"U","NORAD_CAT_ID":61969,"ELEMENT_SET_NO":999,"REV_AT_EPOCH":7469,"BSTAR":0.0012966884,"MEAN_MOTION_DOT":0.00035602,"MEAN_MOTION_DDOT":0}]
